ONEWEB-0424             
1 50497U 21132AE  26066.29963550  .00000035  00000+0  55329-4 0  9998
2 50497  87.9251 355.6866 0002108  76.6737 283.4630 13.18686538208213
ONEWEB-0426             
1 50498U 21132AF  26066.48765154  .00001112  00000+0  27883-2 0  9999
2 50498  87.9252 355.6414 0001347  61.0453 299.0814 13.18697519208185
ONEWEB-0427             
1 50499U 21132AG  26066.52559680 -.00000982  00000+0 -25229-2 0  9998
2 50499  87.9256 355.6202 0001913  71.7124 288.4216 13.18692861208214
ONEWEB-0429             
1 50500U 21132AH  26066.51241612  .00000189  00000+0  44541-3 0  9999
2 50500  87.9248 355.6557 0001859  83.3651 276.7693 13.18686449208184
ONEWEB-0430             
1 50501U 21132AJ  26066.34911500  .00000151  00000+0  35062-3 0  9998
2 50501  87.9252 355.6852 0002072  82.3563 277.7804 13.18688026208208
ONEWEB-0432             
1 50502U 21132AK  26066.53400602  .00000053  00000+0  10275-3 0  9996
2 50502  87.9250 355.6171 0002330  64.7378 295.3996 13.18643888208188
ONEWEB-0440             
1 50503U 21132AL  26066.29303375  .00000104  00000+0  23102-3 0  9999
2 50503  87.9255 355.6856 0001505  88.6101 271.5203 13.18686618208147
ONEWEB-0450             
1 50504U 21132AM  26066.36245363  .00000088  00000+0  19122-3 0  9998
2 50504  87.9231 355.6895 0001950  84.4334 275.7021 13.18686059208188
ONEWEB-0410             
1 51622U 22012A   26066.38689003  .00000096  00000+0  21487-3 0  9999
2 51622  87.9157  26.0625 0001863  36.8237 323.3022 13.17649220200296
ONEWEB-0411             
1 51623U 22012B   26066.53387263 -.00000638  00000+0 -18652-2 0  9993
2 51623  87.8770  56.5029 0002425  90.3924 269.7481 13.10372497195978
ONEWEB-0415             
1 51624U 22012C   26066.53055718 -.00000608  00000+0 -17768-2 0  9995
2 51624  87.8768  56.5063 0002129  87.1441 272.9930 13.10372277195974
ONEWEB-0416             
1 51625U 22012D   26066.46582066 -.00000451  00000+0 -13296-2 0  9997
2 51625  87.8771  56.5397 0002229  79.0923 281.0455 13.10375175196003
ONEWEB-0422             
1 51626U 22012E   26066.62481986 -.00000008  00000+0 -54620-4 0  9991
2 51626  87.9161  26.0181 0001780 102.5241 257.6090 13.17648473200435
ONEWEB-0423             
1 51627U 22012F   26066.61805324 -.00000563  00000+0 -14843-2 0  9994
2 51627  87.9159  26.0288 0001392  89.1212 271.0079 13.17650681200327
ONEWEB-0425             
1 51628U 22012G   26066.39943076 -.00000025  00000+0 -10671-3 0  9996
2 51628  87.8780  56.5307 0001645  77.8537 282.2775 13.10376551195999
ONEWEB-0428             
1 51629U 22012H   26066.53221292 -.00000680  00000+0 -19845-2 0  9990
2 51629  87.8767  56.5173 0001794  88.3805 271.7528 13.10372826195974
ONEWEB-0431             
1 51630U 22012J   26066.50223847  .00000641  00000+0  18001-2 0  9995
2 51630  87.8775  56.5084 0002404  93.5086 266.6316 13.10371694196021
