[{"OBJECT_NAME":"ONEWEB-0424","OBJECT_ID":"2021-132AE","EPOCH":"2026-03-07T07:11:28.507200","MEAN_MOTION":13.18686538,"ECCENTRICITY":0.0002108,"INCLINATION":87.9251,"RA_OF_ASC_NODE":355.6866,"ARG_OF_PERICENTER":76.6737,"MEAN_ANOMALY":283.463,"EPHEMERIS_TYPE":0,"CLASSIFICATION_TYPE":"U","NORAD_CAT_ID":50497,"ELEMENT_SET_NO":999,"REV_AT_EPOCH":20821,"BSTAR":5.5329e-5,"MEAN_MOTION_DOT":3.5e-7,"MEAN_MOTION_DDOT":0},{"OBJECT_NAME":"ONEWEB-0426","OBJECT_ID":"2021-132AF","EPOCH":"2026-03-07T11:42:13.093056","MEAN_MOTION":13.18697519,"ECCENTRICITY":0.00013472,"INCLINATION":87.9252,"RA_OF_ASC_NODE":355.6414,"ARG_OF_PERICENTER":61.0453,"MEAN_ANOMALY":299.0814,"EPHEMERIS_TYPE":0,"CLASSIFICATION_TYPE":"U","NORAD_CAT_ID":50498,"ELEMENT_SET_NO":999,"REV_AT_EPOCH":20818,"BSTAR":0.0027882756,"MEAN_MOTION_DOT":1.112e-5,"MEAN_MOTION_DDOT":0},{"OBJECT_NAME":"ONEWEB-0427","OBJECT_ID":"2021-132AG","EPOCH":"2026-03-07T12:36:51.563520","MEAN_MOTION":13.18692861,"ECCENTRICITY":0.00019136,"INCLINATION":87.9256,"RA_OF_ASC_NODE":355.6202,"ARG_OF_PERICENTER":71.7124,"MEAN_ANOMALY":288.4216,"EPHEMERIS_TYPE":0,"CLASSIFICATION_TYPE":"U","NORAD_CAT_ID":50499,"ELEMENT_SET_NO":999,"REV_AT_EPOCH":20821,"BSTAR":-0.0025228567,"MEAN_MOTION_DOT":-9.82e-6,"MEAN_MOTION_DDOT":0},{"OBJECT_NAME":"ONEWEB-0429","OBJECT_ID":"2021-132AH","EPOCH":"2026-03-07T12:17:52.752768","MEAN_MOTION":13.18686449,"ECCENTRICITY":0.00018593,"INCLINATION":87.9248,"RA_OF_ASC_NODE":355.6557,"ARG_OF_PERICENTER":83.3651,"MEAN_ANOMALY":276.7693,"EPHEMERIS_TYPE":0,"CLASSIFICATION_TYPE":"U","NORAD_CAT_ID":50500,"ELEMENT_SET_NO":999,"REV_AT_EPOCH":20818,"BSTAR":0.00044540836,"MEAN_MOTION_DOT":1.89e-6,"MEAN_MOTION_DDOT":0},{"OBJECT_NAME":"ONEWEB-0430","OBJECT_ID":"2021-132AJ","EPOCH":"2026-03-07T08:22:43.536000","MEAN_MOTION":13.18688026,"ECCENTRICITY":0.00020725,"INCLINATION":87.9252,"RA_OF_ASC_NODE":355.6852,"ARG_OF_PERICENTER":82.3563,"MEAN_ANOMALY":277.7804,"EPHEMERIS_TYPE":0,"CLASSIFICATION_TYPE":"U","NORAD_CAT_ID":50501,"ELEMENT_SET_NO":999,"REV_AT_EPOCH":20820,"BSTAR":0.00035062345,"MEAN_MOTION_DOT":1.51e-6,"MEAN_MOTION_DDOT":0},{"OBJECT_NAME":"ONEWEB-0432","OBJECT_ID":"2021-132AK","EPOCH":"2026-03-07T12:48:58.120128","MEAN_MOTION":13.18643888,"ECCENTRICITY":0.00023307,"INCLINATION":87.925,"RA_OF_ASC_NODE":355.6171,"ARG_OF_PERICENTER":64.7378,"MEAN_ANOMALY":295.3996,"EPHEMERIS_TYPE":0,"CLASSIFICATION_TYPE":"U","NORAD_CAT_ID":50502,"ELEMENT_SET_NO":999,"REV_AT_EPOCH":20818,"BSTAR":0.00010274672,"MEAN_MOTION_DOT":5.3e-7,"MEAN_MOTION_DDOT":0},{"OBJECT_NAME":"ONEWEB-0440","OBJECT_ID":"2021-132AL","EPOCH":"2026-03-07T07:01:58.116000","MEAN_MOTION":13.18686618,"ECCENTRICITY":0.0001505,"INCLINATION":87.9255,"RA_OF_ASC_NODE":355.6856,"ARG_OF_PERICENTER":88.6101,"MEAN_ANOMALY":271.5203,"EPHEMERIS_TYPE":0,"CLASSIFICATION_TYPE":"U","NORAD_CAT_ID":50503,"ELEMENT_SET_NO":999,"REV_AT_EPOCH":20814,"BSTAR":0.00023102,"MEAN_MOTION_DOT":1.04e-6,"MEAN_MOTION_DDOT":0},{"OBJECT_NAME":"ONEWEB-0450","OBJECT_ID":"2021-132AM","EPOCH":"2026-03-07T08:41:55.993632","MEAN_MOTION":13.18686059,"ECCENTRICITY":0.00019504,"INCLINATION":87.9231,"RA_OF_ASC_NODE":355.6895,"ARG_OF_PERICENTER":84.4334,"MEAN_ANOMALY":275.7021,"EPHEMERIS_TYPE":0,"CLASSIFICATION_TYPE":"U","NORAD_CAT_ID":50504,"ELEMENT_SET_NO":999,"REV_AT_EPOCH":20818,"BSTAR":0.0001912231,"MEAN_MOTION_DOT":8.8e-7,"MEAN_MOTION_DDOT":0},{"OBJECT_NAME":"ONEWEB-0410","OBJECT_ID":"2022-012A","EPOCH":"2026-03-07T09:17:07.298592","MEAN_MOTION":13.1764922,"ECCENTRICITY":0.00018637,"INCLINATION":87.9157,"RA_OF_ASC_NODE":26.0625,"ARG_OF_PERICENTER":36.8237,"MEAN_ANOMALY":323.3022,"EPHEMERIS_TYPE":0,"CLASSIFICATION_TYPE":"U","NORAD_CAT_ID":51622,"ELEMENT_SET_NO":999,"REV_AT_EPOCH":20029,"BSTAR":0.00021487007,"MEAN_MOTION_DOT":9.6e-7,"MEAN_MOTION_DDOT":0},{"OBJECT_NAME":"ONEWEB-0411","OBJECT_ID":"2022-012B","EPOCH":"2026-03-07T12:48:46.595232","MEAN_MOTION":13.10372497,"ECCENTRICITY":0.00024259,"INCLINATION":87.877,"RA_OF_ASC_NODE":56.5029,"ARG_OF_PERICENTER":90.3924,"MEAN_ANOMALY":269.7481,"EPHEMERIS_TYPE":0,"CLASSIFICATION_TYPE":"U","NORAD_CAT_ID":51623,"ELEMENT_SET_NO":999,"REV_AT_EPOCH":19597,"BSTAR":-0.0018652093,"MEAN_MOTION_DOT":-6.38e-6,"MEAN_MOTION_DDOT":0},{"OBJECT_NAME":"ONEWEB-0415","OBJECT_ID":"2022-012C","EPOCH":"2026-03-07T12:44:00.140352","MEAN_MOTION":13.10372277,"ECCENTRICITY":0.00021295,"INCLINATION":87.8768,"RA_OF_ASC_NODE":56.5063,"ARG_OF_PERICENTER":87.1441,"MEAN_ANOMALY":272.993,"EPHEMERIS_TYPE":0,"CLASSIFICATION_TYPE":"U","NORAD_CAT_ID":51624,"ELEMENT_SET_NO":999,"REV_AT_EPOCH":19597,"BSTAR":-0.0017768441,"MEAN_MOTION_DOT":-6.08e-6,"MEAN_MOTION_DDOT":0},{"OBJECT_NAME":"ONEWEB-0416","OBJECT_ID":"2022-012D","EPOCH":"2026-03-07T11:10:46.905024","MEAN_MOTION":13.10375175,"ECCENTRICITY":0.00022294,"INCLINATION":87.8771,"RA_OF_ASC_NODE":56.5397,"ARG_OF_PERICENTER":79.0923,"MEAN_ANOMALY":281.0455,"EPHEMERIS_TYPE":0,"CLASSIFICATION_TYPE":"U","NORAD_CAT_ID":51625,"ELEMENT_SET_NO":999,"REV_AT_EPOCH":19600,"BSTAR":-0.001329573,"MEAN_MOTION_DOT":-4.51e-6,"MEAN_MOTION_DDOT":0},{"OBJECT_NAME":"ONEWEB-0422","OBJECT_ID":"2022-012E","EPOCH":"2026-03-07T14:59:44.435904","MEAN_MOTION":13.17648473,"ECCENTRICITY":0.00017803,"INCLINATION":87.9161,"RA_OF_ASC_NODE":26.0181,"ARG_OF_PERICENTER":102.5241,"MEAN_ANOMALY":257.609,"EPHEMERIS_TYPE":0,"CLASSIFICATION_TYPE":"U","NORAD_CAT_ID":51626,"ELEMENT_SET_NO":999,"REV_AT_EPOCH":20043,"BSTAR":-5.462026e-5,"MEAN_MOTION_DOT":-8.0e-8,"MEAN_MOTION_DDOT":0},{"OBJECT_NAME":"ONEWEB-0423","OBJECT_ID":"2022-012F","EPOCH":"2026-03-07T14:49:59.799936","MEAN_MOTION":13.17650681,"ECCENTRICITY":0.0001392,"INCLINATION":87.9159,"RA_OF_ASC_NODE":26.0288,"ARG_OF_PERICENTER":89.1212,"MEAN_ANOMALY":271.0079,"EPHEMERIS_TYPE":0,"CLASSIFICATION_TYPE":"U","NORAD_CAT_ID":51627,"ELEMENT_SET_NO":999,"REV_AT_EPOCH":20032,"BSTAR":-0.0014843209,"MEAN_MOTION_DOT":-5.63e-6,"MEAN_MOTION_DDOT":0},{"OBJECT_NAME":"ONEWEB-0425","OBJECT_ID":"2022-012G","EPOCH":"2026-03-07T09:35:10.817664","MEAN_MOTION":13.10376551,"ECCENTRICITY":0.00016452,"INCLINATION":87.878,"RA_OF_ASC_NODE":56.5307,"ARG_OF_PERICENTER":77.8537,"MEAN_ANOMALY":282.2775,"EPHEMERIS_TYPE":0,"CLASSIFICATION_TYPE":"U","NORAD_CAT_ID":51628,"ELEMENT_SET_NO":999,"REV_AT_EPOCH":19599,"BSTAR":-0.00010670677,"MEAN_MOTION_DOT":-2.5e-7,"MEAN_MOTION_DDOT":0},{"OBJECT_NAME":"ONEWEB-0428","OBJECT_ID":"2022-012H","EPOCH":"2026-03-07T12:46:23.196288","MEAN_MOTION":13.10372826,"ECCENTRICITY":0.00017945,"INCLINATION":87.8767,"RA_OF_ASC_NODE":56.5173,"ARG_OF_PERICENTER":88.3805,"MEAN_ANOMALY":271.7528,"EPHEMERIS_TYPE":0,"CLASSIFICATION_TYPE":"U","NORAD_CAT_ID":51629,"ELEMENT_SET_NO":999,"REV_AT_EPOCH":19597,"BSTAR":-0.0019845477,"MEAN_MOTION_DOT":-6.8e-6,"MEAN_MOTION_DDOT":0},{"OBJECT_NAME":"ONEWEB-0431","OBJECT_ID":"2022-012J","EPOCH":"2026-03-07T12:03:13.403808","MEAN_MOTION":13.10371694,"ECCENTRICITY":0.00024049,"INCLINATION":87.8775,"RA_OF_ASC_NODE":56.5084,"ARG_OF_PERICENTER":93.5086,"MEAN_ANOMALY":266.6316,"EPHEMERIS_TYPE":0,"CLASSIFICATION_TYPE":"U","NORAD_CAT_ID":51630,"ELEMENT_SET_NO":999,"REV_AT_EPOCH":19602,"BSTAR":0.0018001249,"MEAN_MOTION_DOT":6.41e-6,"MEAN_MOTION_DDOT":0}]
